IRIDIUM 112             
1 41925U 17003J   24050.60881877  .00000456  00000+0  15582-3 0  9996
2 41925  86.3911  82.9558 0002213  87.0503 273.0946 14.34220034371644
IRIDIUM 111             
1 41926U 17003K   24050.59613155  .00000101  00000+0  29163-4 0  9995
2 41926  86.3913  83.0132 0001937  89.6884 270.4534 14.34220478371623
IRIDIUM 113             
1 42803U 17039A   24050.43656352  .00000345  00000+0  11604-3 0  9998
2 42803  86.3996 316.8534 0001983  77.9943 282.1475 14.34216771349539
IRIDIUM 123             
1 42804U 17039B   24050.33850381  .00000423  00000+0  14393-3 0  9991
2 42804  86.4020 348.3793 0002084  81.9758 278.1674 14.34216403348287
IRIDIUM 120             
1 42805U 17039C   24050.49999013  .00000231  00000+0  75549-4 0  9993
2 42805  86.3986 316.7194 0002091  84.6048 275.5386 14.34218080349535
IRIDIUM 115             
1 42806U 17039D   24050.43975595  .00000768  00000+0  22228-3 0  9997
2 42806  86.4525 316.7518 0001989  80.3410 279.8016 14.43296067351842
IRIDIUM 118             
1 42807U 17039E   24050.57952119  .00000393  00000+0  13344-3 0  9993
2 42807  86.4020 348.2806 0002183  84.5727 275.5718 14.34219437348313
IRIDIUM 117             
1 42808U 17039F   24050.52877752 -.00000663  00000+0 -24403-3 0  9998
2 42808  86.4019 348.2673 0001869  82.1218 278.0190 14.34213105348333
